{"fetched_at":"2026-07-11T09:24:25.354Z","source":"https://celestrak.org/NORAD/elements/gp.php?NAME=JILIN&FORMAT=JSON","constellation":"jilin-1-early","records":[{"OBJECT_NAME":"JILIN-1","OBJECT_ID":"2015-057D","EPOCH":"2026-07-11T04:18:20.262816","CLASSIFICATION_TYPE":"U","MEAN_MOTION":14.78197722,"ECCENTRICITY":0.0016858,"INCLINATION":97.6517,"RA_OF_ASC_NODE":190.356,"ARG_OF_PERICENTER":179.8314,"MEAN_ANOMALY":180.2906,"EPHEMERIS_TYPE":0,"NORAD_CAT_ID":40961,"ELEMENT_SET_NO":999,"REV_AT_EPOCH":57915,"BSTAR":0.000069849,"MEAN_MOTION_DOT":0.00000459,"MEAN_MOTION_DDOT":0},{"OBJECT_NAME":"JILIN-1 03","OBJECT_ID":"2017-002B","EPOCH":"2026-07-11T04:02:20.019264","CLASSIFICATION_TYPE":"U","MEAN_MOTION":15.42163043,"ECCENTRICITY":0.0008013,"INCLINATION":97.1949,"RA_OF_ASC_NODE":198.9234,"ARG_OF_PERICENTER":89.9667,"MEAN_ANOMALY":270.2498,"EPHEMERIS_TYPE":0,"NORAD_CAT_ID":41914,"ELEMENT_SET_NO":999,"REV_AT_EPOCH":52555,"BSTAR":0.0002029,"MEAN_MOTION_DOT":0.00008621,"MEAN_MOTION_DDOT":0},{"OBJECT_NAME":"JILIN-1 04","OBJECT_ID":"2017-074A","EPOCH":"2026-07-11T05:09:09.254880","CLASSIFICATION_TYPE":"U","MEAN_MOTION":15.43061951,"ECCENTRICITY":0.0005238,"INCLINATION":97.4869,"RA_OF_ASC_NODE":302.4796,"ARG_OF_PERICENTER":110.7408,"MEAN_ANOMALY":249.4401,"EPHEMERIS_TYPE":0,"NORAD_CAT_ID":43022,"ELEMENT_SET_NO":999,"REV_AT_EPOCH":47797,"BSTAR":0.00019297,"MEAN_MOTION_DOT":0.00008435,"MEAN_MOTION_DDOT":0},{"OBJECT_NAME":"JILIN-1 05","OBJECT_ID":"2017-074B","EPOCH":"2026-07-11T04:34:23.522592","CLASSIFICATION_TYPE":"U","MEAN_MOTION":15.34245697,"ECCENTRICITY":0.0006266,"INCLINATION":97.4876,"RA_OF_ASC_NODE":298.6766,"ARG_OF_PERICENTER":135.6949,"MEAN_ANOMALY":224.4796,"EPHEMERIS_TYPE":0,"NORAD_CAT_ID":43023,"ELEMENT_SET_NO":999,"REV_AT_EPOCH":47768,"BSTAR":0.00015065,"MEAN_MOTION_DOT":0.00004914,"MEAN_MOTION_DDOT":0},{"OBJECT_NAME":"JILIN-1 06","OBJECT_ID":"2017-074C","EPOCH":"2026-07-11T05:32:33.586656","CLASSIFICATION_TYPE":"U","MEAN_MOTION":15.33967495,"ECCENTRICITY":0.0007813,"INCLINATION":97.4801,"RA_OF_ASC_NODE":295.6951,"ARG_OF_PERICENTER":145.9832,"MEAN_ANOMALY":214.1912,"EPHEMERIS_TYPE":0,"NORAD_CAT_ID":43024,"ELEMENT_SET_NO":999,"REV_AT_EPOCH":47752,"BSTAR":0.00011354,"MEAN_MOTION_DOT":0.00003652,"MEAN_MOTION_DDOT":0},{"OBJECT_NAME":"JILIN-1 07","OBJECT_ID":"2018-008E","EPOCH":"2026-07-11T03:34:27.520896","CLASSIFICATION_TYPE":"U","MEAN_MOTION":15.35121164,"ECCENTRICITY":0.0007171,"INCLINATION":97.1769,"RA_OF_ASC_NODE":211.4431,"ARG_OF_PERICENTER":345.0814,"MEAN_ANOMALY":15.0218,"EPHEMERIS_TYPE":0,"NORAD_CAT_ID":43159,"ELEMENT_SET_NO":999,"REV_AT_EPOCH":46867,"BSTAR":0.00016954,"MEAN_MOTION_DOT":0.00005704,"MEAN_MOTION_DDOT":0},{"OBJECT_NAME":"JILIN-1 08","OBJECT_ID":"2018-008F","EPOCH":"2026-07-11T03:58:57.566784","CLASSIFICATION_TYPE":"U","MEAN_MOTION":15.33980877,"ECCENTRICITY":0.000581,"INCLINATION":97.1804,"RA_OF_ASC_NODE":210.7493,"ARG_OF_PERICENTER":7.8623,"MEAN_ANOMALY":352.271,"EPHEMERIS_TYPE":0,"NORAD_CAT_ID":43160,"ELEMENT_SET_NO":999,"REV_AT_EPOCH":46862,"BSTAR":0.00012039,"MEAN_MOTION_DOT":0.00003882,"MEAN_MOTION_DDOT":0},{"OBJECT_NAME":"JILIN-1 09","OBJECT_ID":"2019-005B","EPOCH":"2026-07-11T04:46:12.791424","CLASSIFICATION_TYPE":"U","MEAN_MOTION":15.20719969,"ECCENTRICITY":0.000268,"INCLINATION":97.4743,"RA_OF_ASC_NODE":286.9596,"ARG_OF_PERICENTER":44.6635,"MEAN_ANOMALY":315.4816,"EPHEMERIS_TYPE":0,"NORAD_CAT_ID":43943,"ELEMENT_SET_NO":999,"REV_AT_EPOCH":41279,"BSTAR":0.00013567,"MEAN_MOTION_DOT":0.00002914,"MEAN_MOTION_DDOT":0},{"OBJECT_NAME":"JILIN-1 10","OBJECT_ID":"2019-005E","EPOCH":"2026-07-11T04:39:39.352608","CLASSIFICATION_TYPE":"U","MEAN_MOTION":15.25979297,"ECCENTRICITY":0.0008174,"INCLINATION":97.4793,"RA_OF_ASC_NODE":291.0031,"ARG_OF_PERICENTER":183.3475,"MEAN_ANOMALY":176.771,"EPHEMERIS_TYPE":0,"NORAD_CAT_ID":43946,"ELEMENT_SET_NO":999,"REV_AT_EPOCH":41297,"BSTAR":0.00014402,"MEAN_MOTION_DOT":0.00003629,"MEAN_MOTION_DDOT":0}]}
