JILIN-1                 
1 40961U 15057D   26192.17940119  .00000459  00000+0  69849-4 0  9997
2 40961  97.6517 190.3560 0016858 179.8314 180.2906 14.78197722579153
JILIN-1 03              
1 41914U 17002B   26192.16828726  .00008621  00000+0  20290-3 0  9991
2 41914  97.1949 198.9234 0008013  89.9667 270.2498 15.42163043525556
JILIN-1 04              
1 43022U 17074A   26192.21469045  .00008435  00000+0  19297-3 0  9991
2 43022  97.4869 302.4796 0005238 110.7408 249.4401 15.43061951477979
JILIN-1 05              
1 43023U 17074B   26192.19055003  .00004914  00000+0  15065-3 0  9991
2 43023  97.4876 298.6766 0006266 135.6949 224.4796 15.34245697477688
JILIN-1 06              
1 43024U 17074C   26192.23094429  .00003652  00000+0  11354-3 0  9997
2 43024  97.4801 295.6951 0007813 145.9832 214.1912 15.33967495477529
JILIN-1 07              
1 43159U 18008E   26192.14892964  .00005704  00000+0  16954-3 0  9995
2 43159  97.1769 211.4431 0007171 345.0814  15.0218 15.35121164468677
JILIN-1 08              
1 43160U 18008F   26192.16594406  .00003882  00000+0  12039-3 0  9994
2 43160  97.1804 210.7493 0005810   7.8623 352.2710 15.33980877468628
JILIN-1 09              
1 43943U 19005B   26192.19875916  .00002914  00000+0  13567-3 0  9994
2 43943  97.4743 286.9596 0002680  44.6635 315.4816 15.20719969412798
JILIN-1 10              
1 43946U 19005E   26192.19420547  .00003629  00000+0  14402-3 0  9996
2 43946  97.4793 291.0031 0008174 183.3475 176.7710 15.25979297412972
